ONEWEB-0342             
1 49208U 21083Y   25211.91481655  .00000012  00000+0 -12702-5 0  9997
2 49208  87.9282 338.4458 0001957  94.9092 265.2265 13.20771674194371
ONEWEB-0343             
1 49209U 21083Z   25211.95136865  .00000072  00000+0  15002-3 0  9991
2 49209  87.9126  39.2590 0001558  70.1914 289.9386 13.18687906187705
ONEWEB-0344             
1 49210U 21083AA  25211.87893121 -.00000134  00000+0 -40142-3 0  9993
2 49210  87.8968  24.1099 0001334  88.4753 271.6529 13.13469417188711
ONEWEB-0345             
1 49211U 21083AB  25211.94664891  .00000094  00000+0  22194-3 0  9992
2 49211  87.8965  24.0481 0001285  87.8961 272.2315 13.13467929188730
ONEWEB-0346             
1 49212U 21083AC  25211.88456030  .00000008  00000+0 -12936-4 0  9990
2 49212  87.9127  39.2945 0001878 109.3241 250.8094 13.18685882187633
ONEWEB-0348             
1 49213U 21083AD  25211.90533934  .00000010  00000+0 -71605-5 0  9995
2 49213  87.9288 338.4583 0001477 115.0009 245.1278 13.20772738194409
ONEWEB-0350             
1 49214U 21083AE  25211.87977173 -.00000182  00000+0 -53380-3 0  9998
2 49214  87.8968  24.0526 0001445  91.8118 268.3176 13.13468216188756
ONEWEB-0351             
1 49215U 21083AF  25211.82309682  .00003184  00000+0  77936-2 0  9993
2 49215  87.9294 338.4574 0002192  74.1933 285.9442 13.20801380194359
ONEWEB-0352             
1 49216U 21083AG  25211.93649241  .00000306  00000+0  80384-3 0  9999
2 49216  87.8967  24.0833 0001907  77.5301 282.6041 13.13469322188856
ONEWEB-0354             
1 49217U 21083AH  25211.84852164  .00000041  00000+0  69255-4 0  9991
2 49217  87.9294 338.4512 0001592 101.4164 258.7148 13.20770822194397
ONEWEB-0355             
1 49218U 21083AJ  25211.88922184 -.00000289  00000+0 -82593-3 0  9991
2 49218  87.8973  24.0913 0001656  85.2648 274.8670 13.13470874188726
ONEWEB-0357             
1 49219U 21083AK  25211.92112479  .00000132  00000+0  29366-3 0  9999
2 49219  87.9282 338.4410 0001793  92.9660 267.1678 13.20771166194407
ONEWEB-0332             
1 49279U 21090A   25211.92546262  .00000230  00000+0  58718-3 0  9996
2 49279  87.9069 353.6463 0002016  91.7522 268.3839 13.14503674185374
ONEWEB-0347             
1 49280U 21090B   25211.91165111  .00000063  00000+0  12311-3 0  9990
2 49280  87.9291 338.4529 0002257  98.0411 262.0978 13.20771098188632
ONEWEB-0349             
1 49281U 21090C   25211.86746799  .00000034  00000+0  52081-4 0  9999
2 49281  87.9283 338.4663 0001822  95.6088 264.5253 13.20769941187415
ONEWEB-0353             
1 49282U 21090D   25211.91753101  .00000238  00000+0  60681-3 0  9991
2 49282  87.9068 353.6347 0002069  94.1770 265.9596 13.14503846185372
ONEWEB-0356             
1 49283U 21090E   25211.86588256  .00000013  00000+0 -58019-6 0  9990
2 49283  87.9286 338.4574 0002375 119.0094 241.1277 13.20771098187416
