[{"OBJECT_NAME":"ONEWEB-0342","OBJECT_ID":"2021-083Y","EPOCH":"2025-07-30T21:57:20.149920","MEAN_MOTION":13.20771674,"ECCENTRICITY":0.0001957,"INCLINATION":87.9282,"RA_OF_ASC_NODE":338.4458,"ARG_OF_PERICENTER":94.9092,"MEAN_ANOMALY":265.2265,"EPHEMERIS_TYPE":0,"CLASSIFICATION_TYPE":"U","NORAD_CAT_ID":49208,"ELEMENT_SET_NO":999,"REV_AT_EPOCH":19437,"BSTAR":-1.2702e-6,"MEAN_MOTION_DOT":1.2e-7,"MEAN_MOTION_DDOT":0},{"OBJECT_NAME":"ONEWEB-0343","OBJECT_ID":"2021-083Z","EPOCH":"2025-07-30T22:49:58.251360","MEAN_MOTION":13.18687906,"ECCENTRICITY":0.0001558,"INCLINATION":87.9126,"RA_OF_ASC_NODE":39.259,"ARG_OF_PERICENTER":70.1914,"MEAN_ANOMALY":289.9386,"EPHEMERIS_TYPE":0,"CLASSIFICATION_TYPE":"U","NORAD_CAT_ID":49209,"ELEMENT_SET_NO":999,"REV_AT_EPOCH":18770,"BSTAR":0.00015002,"MEAN_MOTION_DOT":7.2e-7,"MEAN_MOTION_DDOT":0},{"OBJECT_NAME":"ONEWEB-0344","OBJECT_ID":"2021-083AA","EPOCH":"2025-07-30T21:05:39.656544","MEAN_MOTION":13.13469417,"ECCENTRICITY":0.0001334,"INCLINATION":87.8968,"RA_OF_ASC_NODE":24.1099,"ARG_OF_PERICENTER":88.4753,"MEAN_ANOMALY":271.6529,"EPHEMERIS_TYPE":0,"CLASSIFICATION_TYPE":"U","NORAD_CAT_ID":49210,"ELEMENT_SET_NO":999,"REV_AT_EPOCH":18871,"BSTAR":-0.00040142,"MEAN_MOTION_DOT":-1.34e-6,"MEAN_MOTION_DDOT":0},{"OBJECT_NAME":"ONEWEB-0345","OBJECT_ID":"2021-083AB","EPOCH":"2025-07-30T22:43:10.465824","MEAN_MOTION":13.13467929,"ECCENTRICITY":0.0001285,"INCLINATION":87.8965,"RA_OF_ASC_NODE":24.0481,"ARG_OF_PERICENTER":87.8961,"MEAN_ANOMALY":272.2315,"EPHEMERIS_TYPE":0,"CLASSIFICATION_TYPE":"U","NORAD_CAT_ID":49211,"ELEMENT_SET_NO":999,"REV_AT_EPOCH":18873,"BSTAR":0.00022194,"MEAN_MOTION_DOT":9.4e-7,"MEAN_MOTION_DDOT":0},{"OBJECT_NAME":"ONEWEB-0346","OBJECT_ID":"2021-083AC","EPOCH":"2025-07-30T21:13:46.009920","MEAN_MOTION":13.18685882,"ECCENTRICITY":0.0001878,"INCLINATION":87.9127,"RA_OF_ASC_NODE":39.2945,"ARG_OF_PERICENTER":109.3241,"MEAN_ANOMALY":250.8094,"EPHEMERIS_TYPE":0,"CLASSIFICATION_TYPE":"U","NORAD_CAT_ID":49212,"ELEMENT_SET_NO":999,"REV_AT_EPOCH":18763,"BSTAR":-1.2936e-5,"MEAN_MOTION_DOT":8.0e-8,"MEAN_MOTION_DDOT":0},{"OBJECT_NAME":"ONEWEB-0348","OBJECT_ID":"2021-083AD","EPOCH":"2025-07-30T21:43:41.318976","MEAN_MOTION":13.20772738,"ECCENTRICITY":0.0001477,"INCLINATION":87.9288,"RA_OF_ASC_NODE":338.4583,"ARG_OF_PERICENTER":115.0009,"MEAN_ANOMALY":245.1278,"EPHEMERIS_TYPE":0,"CLASSIFICATION_TYPE":"U","NORAD_CAT_ID":49213,"ELEMENT_SET_NO":999,"REV_AT_EPOCH":19440,"BSTAR":-7.1605e-6,"MEAN_MOTION_DOT":1.0e-7,"MEAN_MOTION_DDOT":0},{"OBJECT_NAME":"ONEWEB-0350","OBJECT_ID":"2021-083AE","EPOCH":"2025-07-30T21:06:52.277472","MEAN_MOTION":13.13468216,"ECCENTRICITY":0.0001445,"INCLINATION":87.8968,"RA_OF_ASC_NODE":24.0526,"ARG_OF_PERICENTER":91.8118,"MEAN_ANOMALY":268.3176,"EPHEMERIS_TYPE":0,"CLASSIFICATION_TYPE":"U","NORAD_CAT_ID":49214,"ELEMENT_SET_NO":999,"REV_AT_EPOCH":18875,"BSTAR":-0.0005338,"MEAN_MOTION_DOT":-1.82e-6,"MEAN_MOTION_DDOT":0},{"OBJECT_NAME":"ONEWEB-0351","OBJECT_ID":"2021-083AF","EPOCH":"2025-07-30T19:45:15.565248","MEAN_MOTION":13.2080138,"ECCENTRICITY":0.0002192,"INCLINATION":87.9294,"RA_OF_ASC_NODE":338.4574,"ARG_OF_PERICENTER":74.1933,"MEAN_ANOMALY":285.9442,"EPHEMERIS_TYPE":0,"CLASSIFICATION_TYPE":"U","NORAD_CAT_ID":49215,"ELEMENT_SET_NO":999,"REV_AT_EPOCH":19435,"BSTAR":0.0077936,"MEAN_MOTION_DOT":3.184e-5,"MEAN_MOTION_DDOT":0},{"OBJECT_NAME":"ONEWEB-0352","OBJECT_ID":"2021-083AG","EPOCH":"2025-07-30T22:28:32.944224","MEAN_MOTION":13.13469322,"ECCENTRICITY":0.0001907,"INCLINATION":87.8967,"RA_OF_ASC_NODE":24.0833,"ARG_OF_PERICENTER":77.5301,"MEAN_ANOMALY":282.6041,"EPHEMERIS_TYPE":0,"CLASSIFICATION_TYPE":"U","NORAD_CAT_ID":49216,"ELEMENT_SET_NO":999,"REV_AT_EPOCH":18885,"BSTAR":0.00080384,"MEAN_MOTION_DOT":3.06e-6,"MEAN_MOTION_DDOT":0},{"OBJECT_NAME":"ONEWEB-0354","OBJECT_ID":"2021-083AH","EPOCH":"2025-07-30T20:21:52.269696","MEAN_MOTION":13.20770822,"ECCENTRICITY":0.0001592,"INCLINATION":87.9294,"RA_OF_ASC_NODE":338.4512,"ARG_OF_PERICENTER":101.4164,"MEAN_ANOMALY":258.7148,"EPHEMERIS_TYPE":0,"CLASSIFICATION_TYPE":"U","NORAD_CAT_ID":49217,"ELEMENT_SET_NO":999,"REV_AT_EPOCH":19439,"BSTAR":6.9255e-5,"MEAN_MOTION_DOT":4.1e-7,"MEAN_MOTION_DDOT":0},{"OBJECT_NAME":"ONEWEB-0355","OBJECT_ID":"2021-083AJ","EPOCH":"2025-07-30T21:20:28.766976","MEAN_MOTION":13.13470874,"ECCENTRICITY":0.0001656,"INCLINATION":87.8973,"RA_OF_ASC_NODE":24.0913,"ARG_OF_PERICENTER":85.2648,"MEAN_ANOMALY":274.867,"EPHEMERIS_TYPE":0,"CLASSIFICATION_TYPE":"U","NORAD_CAT_ID":49218,"ELEMENT_SET_NO":999,"REV_AT_EPOCH":18872,"BSTAR":-0.00082593,"MEAN_MOTION_DOT":-2.89e-6,"MEAN_MOTION_DDOT":0},{"OBJECT_NAME":"ONEWEB-0357","OBJECT_ID":"2021-083AK","EPOCH":"2025-07-30T22:06:25.181856","MEAN_MOTION":13.20771166,"ECCENTRICITY":0.0001793,"INCLINATION":87.9282,"RA_OF_ASC_NODE":338.441,"ARG_OF_PERICENTER":92.966,"MEAN_ANOMALY":267.1678,"EPHEMERIS_TYPE":0,"CLASSIFICATION_TYPE":"U","NORAD_CAT_ID":49219,"ELEMENT_SET_NO":999,"REV_AT_EPOCH":19440,"BSTAR":0.00029366,"MEAN_MOTION_DOT":1.32e-6,"MEAN_MOTION_DDOT":0},{"OBJECT_NAME":"ONEWEB-0332","OBJECT_ID":"2021-090A","EPOCH":"2025-07-30T22:12:39.970368","MEAN_MOTION":13.14503674,"ECCENTRICITY":0.0002016,"INCLINATION":87.9069,"RA_OF_ASC_NODE":353.6463,"ARG_OF_PERICENTER":91.7522,"MEAN_ANOMALY":268.3839,"EPHEMERIS_TYPE":0,"CLASSIFICATION_TYPE":"U","NORAD_CAT_ID":49279,"ELEMENT_SET_NO":999,"REV_AT_EPOCH":18537,"BSTAR":0.00058718,"MEAN_MOTION_DOT":2.3e-6,"MEAN_MOTION_DDOT":0},{"OBJECT_NAME":"ONEWEB-0347","OBJECT_ID":"2021-090B","EPOCH":"2025-07-30T21:52:46.655904","MEAN_MOTION":13.20771098,"ECCENTRICITY":0.0002257,"INCLINATION":87.9291,"RA_OF_ASC_NODE":338.4529,"ARG_OF_PERICENTER":98.0411,"MEAN_ANOMALY":262.0978,"EPHEMERIS_TYPE":0,"CLASSIFICATION_TYPE":"U","NORAD_CAT_ID":49280,"ELEMENT_SET_NO":999,"REV_AT_EPOCH":18863,"BSTAR":0.00012311,"MEAN_MOTION_DOT":6.3e-7,"MEAN_MOTION_DDOT":0},{"OBJECT_NAME":"ONEWEB-0349","OBJECT_ID":"2021-090C","EPOCH":"2025-07-30T20:49:09.234336","MEAN_MOTION":13.20769941,"ECCENTRICITY":0.0001822,"INCLINATION":87.9283,"RA_OF_ASC_NODE":338.4663,"ARG_OF_PERICENTER":95.6088,"MEAN_ANOMALY":264.5253,"EPHEMERIS_TYPE":0,"CLASSIFICATION_TYPE":"U","NORAD_CAT_ID":49281,"ELEMENT_SET_NO":999,"REV_AT_EPOCH":18741,"BSTAR":5.2081e-5,"MEAN_MOTION_DOT":3.4e-7,"MEAN_MOTION_DDOT":0},{"OBJECT_NAME":"ONEWEB-0353","OBJECT_ID":"2021-090D","EPOCH":"2025-07-30T22:01:14.679264","MEAN_MOTION":13.14503846,"ECCENTRICITY":0.0002069,"INCLINATION":87.9068,"RA_OF_ASC_NODE":353.6347,"ARG_OF_PERICENTER":94.177,"MEAN_ANOMALY":265.9596,"EPHEMERIS_TYPE":0,"CLASSIFICATION_TYPE":"U","NORAD_CAT_ID":49282,"ELEMENT_SET_NO":999,"REV_AT_EPOCH":18537,"BSTAR":0.00060681,"MEAN_MOTION_DOT":2.38e-6,"MEAN_MOTION_DDOT":0},{"OBJECT_NAME":"ONEWEB-0356","OBJECT_ID":"2021-090E","EPOCH":"2025-07-30T20:46:52.253184","MEAN_MOTION":13.20771098,"ECCENTRICITY":0.0002375,"INCLINATION":87.9286,"RA_OF_ASC_NODE":338.4574,"ARG_OF_PERICENTER":119.0094,"MEAN_ANOMALY":241.1277,"EPHEMERIS_TYPE":0,"CLASSIFICATION_TYPE":"U","NORAD_CAT_ID":49283,"ELEMENT_SET_NO":999,"REV_AT_EPOCH":18741,"BSTAR":-5.8019e-7,"MEAN_MOTION_DOT":1.3e-7,"MEAN_MOTION_DDOT":0}]
